NAVSTAR 75 (USA 265)    
1 41019U 15062A   26032.66453873 -.00000056  00000+0  00000+0 0  9994
2 41019  56.8703  36.0336 0111521 231.1120 127.9151  2.00567007 75115
ELEKTRO-L 2             
1 41105U 15074A   26032.91564993 -.00000129  00000+0  00000+0 0  9998
2 41105   6.3534  72.2001 0003801 223.1712 151.8598  1.00271876 37151
GSAT0209 (GALILEO 12)   
1 41174U 15079A   26030.19160468 -.00000027  00000+0  00000+0 0  9993
2 41174  55.7391 105.0491 0003694 326.2571  33.7611  1.70474516 62427
GSAT0208 (GALILEO 11)   
1 41175U 15079B   26031.58497980 -.00000022  00000+0  00000+0 0  9995
2 41175  55.7383 105.0079 0003207 326.0394  33.9902  1.70474389 62863
NAVSTAR 76 (USA 266)    
1 41328U 16007A   26032.25007795 -.00000013  00000+0  00000+0 0  9993
2 41328  55.4350  94.8505 0094446 245.0741 114.0056  2.00558177 73117
GSAT0211 (GALILEO 14)   
1 41549U 16030A   26029.94932291  .00000081  00000+0  00000+0 0  9998
2 41549  55.1388 225.4945 0004066  27.1098 332.9464  1.70473440 60310
GSAT0210 (GALILEO 13)   
1 41550U 16030B   26032.55293652  .00000056  00000+0  00000+0 0  9994
2 41550  55.1373 225.4208 0000790 177.0901 182.9255  1.70473755 60350
INSAT-3DR               
1 41752U 16054A   26032.71925218 -.00000086  00000+0  00000+0 0  9996
2 41752   0.0429  93.7322 0014094 184.1421 186.9551  1.00270875 34463
GSAT0207 (GALILEO 15)   
1 41859U 16069A   26031.07148286 -.00000025  00000+0  00000+0 0  9993
2 41859  55.4094 104.8824 0004010 308.3923  51.6185  1.70474411 57069
GSAT0212 (GALILEO 16)   
1 41860U 16069B   26032.68483895 -.00000019  00000+0  00000+0 0  9994
2 41860  55.4080 104.8328 0002754 343.6767  16.3713  1.70474658 57345
GSAT0213 (GALILEO 17)   
1 41861U 16069C   26032.46574104 -.00000020  00000+0  00000+0 0  9997
2 41861  55.4103 104.8466 0004378 286.8241  73.1834  1.70474953 57202
GSAT0214 (GALILEO 18)   
1 41862U 16069D   26030.85201895 -.00000025  00000+0  00000+0 0  9998
2 41862  55.4077 104.8843 0003230 291.3477  68.6631  1.70474819 57306
GOES 16                 
1 41866U 16071A   26032.89770984 -.00000101  00000+0  00000+0 0  9996
2 41866   0.1469  94.4656 0003121 194.3382  61.7427  1.00271265 33746
GSAT-17                 
1 42815U 17040B   26032.93705673 -.00000267  00000+0  00000+0 0  9999
2 42815   0.0255  89.7635 0006470 190.4735 282.7143  1.00270156 31438
GSAT0215 (GALILEO 19)   
1 43055U 17079A   26031.92873888  .00000061  00000+0  00000+0 0  9991
2 43055  55.1164 225.2537 0001042  25.5758 334.4495  1.70474177 50663
GSAT0216 (GALILEO 20)   
1 43056U 17079B   26032.80655212  .00000054  00000+0  00000+0 0  9991
2 43056  55.1150 225.2294 0001857 335.1872  24.8164  1.70474332 50699
GSAT0217 (GALILEO 21)   
1 43057U 17079C   26030.68099299  .00000074  00000+0  00000+0 0  9995
2 43057  55.1157 225.2857 0002564   3.4920 356.5398  1.70474153 50647
